0 CZ-3C DEB
1 39348U 10057N   13294.44399392 -.00000135  00000-0  92403-5 0    31
2 39348 020.2990 243.3287 7233056 183.5721 164.8691 02.24817305 18166
